RISAT-2BR2              
1 46905U 20081A   26068.52426450  .00004901  00000+0  37609-3 0  9996
2 46905  36.8980  95.9121 0010905  52.9142 307.2595 15.01602463292489
STARLINK-34836          
1 65399U 25191W   26068.65091641  .00013519  00000+0  93942-3 0  9992
2 65399  97.6027 301.4895 0002985  66.6441 293.5099 15.05645449 30267
